[{"OBJECT_NAME":"MOLNIYA 3-50","OBJECT_ID":"1999-036A","EPOCH":"2022-08-18T07:42:48.035520","MEAN_MOTION":2.00655671,"ECCENTRICITY":0.737801,"INCLINATION":63.209,"RA_OF_ASC_NODE":324.8404,"ARG_OF_PERICENTER":282.0973,"MEAN_ANOMALY":10.8626,"EPHEMERIS_TYPE":0,"CLASSIFICATION_TYPE":"U","NORAD_CAT_ID":25847,"ELEMENT_SET_NO":999,"REV_AT_EPOCH":16935,"BSTAR":-0.00019544,"MEAN_MOTION_DOT":1.6e-6,"MEAN_MOTION_DDOT":0}]