MOLNIYA 3-50            
1 25847U 99036A   22230.32138930  .00000160  00000+0 -19544-3 0  9994
2 25847  63.2090 324.8404 7378010 282.0973  10.8626  2.00655671169359`;
